90P/Gehrels,e,9.6354,13.2519,29.2912,6.068469,0.0659303,0.50984146,335.0569,06/06.0/2016,2000,g  8.5,6.0
# From MPC 84320
91P/Russell,e,14.0820,247.8310,354.5414,3.896931,0.1281209,0.32976523,152.7960,06/06.0/2016,2000,g  7.5,6.0
# From MPC 88331
92P/Sanguin,e,19.4443,181.4588,163.7795,5.356588,0.0795008,0.65923025,36.7973,06/06.0/2016,2000,g 12.0,6.0
# From NK 2707
93P/Lovas,e,12.2052,339.6279,74.9065,4.389526,0.1071711,0.61271648,331.2289,06/06.0/2016,2000,g  9.5,6.0
# From MPC 84320
94P/Russell,e,6.1857,70.8875,92.7815,3.509701,0.1498991,0.36462885,338.4573,06/06.0/2016,2000,g  9.0,6.0
# From MPC 75717
95P/Chiron,e,6.9464,209.2205,339.5161,13.63878,0.0195677,0.38272672,144.9341,06/06.0/2016,2000,g  6.3,2.0
# From NK 2733
96P/Machholz,e,58.1780,94.2776,14.7868,3.034454,0.1864590,0.95918445,265.0989,06/06.0/2016,2000,g 13.0,4.8
# From MPC 77020
97P/Metcalf-Brewington,e,17.8642,185.1856,228.2656,4.799781,0.0937286,0.45700392,164.3800,06/06.0/2016,2000,g  5.5,6.0
# From MPC 83523
98P/Takamizawa,e,10.5467,114.7243,157.8067,3.804746,0.1328054,0.56092721,137.5293,06/06.0/2016,2000,g  9.0,8.0
# From MPC 75718
99P/Kowal,e,4.3392,28.1828,174.3177,6.129386,0.0649499,0.23067611,221.5663,06/06.0/2016,2000,g  4.5,6.0
# From MPC 84321
100P/Hartley,e,25.5895,37.7252,181.8631,3.427607,0.1553165,0.41342022,10.0914,06/06.0/2016,2000,g  9.0,8.0
# From MPC 75718
101P/Chernykh,e,5.0489,116.2536,277.6827,5.790585,0.0707327,0.59511993,266.9283,06/06.0/2016,2000,g 10.0,4.8
# From MPC 86232
102P/Shoemaker,e,26.1909,339.7532,20.5511,3.791293,0.1335128,0.46407919,135.0218,06/06.0/2016,2000,g  6.5,8.0
# From NK 2714
103P/Hartley,e,13.5941,219.7288,181.3104,3.476727,0.1520366,0.69344185,311.5751,06/06.0/2016,2000,g  8.5,8.0
# From MPC 10028
104P/Kowal,e,10.2561,235.4408,200.6683,3.262052,0.1672892,0.63851526,11.6837,06/06.0/2016,2000,g 16.0,4.0
# From MPC 94676
105P/Singer Brewster,e,9.1765,192.4310,46.5160,3.466404,0.1527162,0.40988346,238.4866,06/06.0/2016,2000,g 11.5,6.0
# From MPC 92276
106P/Schuster,e,20.2113,50.2929,355.9820,3.752440,0.1355918,0.58974235,93.0778,06/06.0/2016,2000,g 14.0,4.8
# From MPC 94676
107P/Wilson-Harrington,e,2.7705,268.3072,93.6057,2.636387,0.2302451,0.62871992,195.0586,06/06.0/2016,2000,g 16.0,2.0
# From MPC 89313
108P/Ciffreo,e,13.1383,53.3622,358.2516,3.741253,0.1362004,0.54503175,81.1633,06/06.0/2016,2000,g  8.0,12.0
# From ICA 105, 420
109P/Swift-Tuttle,e,113.0447,139.7971,153.0934,26.11749,0.0073843,0.96375535,63.3709,06/06.0/2016,2000,g  4.5,6.0
# From MPC 91618
110P/Hartley,e,11.6830,287.6117,167.5878,3.610103,0.1436894,0.31538620,77.1432,06/06.0/2016,2000,g  1.0,12.0
# From MPC 75718
111P/Helin-Roman-Crockett,e,4.2284,89.7677,1.9113,4.139145,0.1170410,0.10551368,144.3773,06/06.0/2016,2000,g  5.0,8.0
# From MPC 69910
112P/Urata-Niijima,e,24.2046,31.9097,21.3775,3.530025,0.1486064,0.58782846,160.2459,06/06.0/2016,2000,g 14.0,6.0
# From MPC 92984
113P/Spitaler,e,5.7779,14.3673,50.1606,3.688738,0.1391193,0.42547511,56.8678,06/06.0/2016,2000,g 13.5,4.0
# From MPC 82722
114P/Wiseman-Skiff,e,18.2794,271.0630,172.8724,3.543990,0.1477289,0.55470054,165.3980,06/06.0/2016,2000,g 11.5,6.0
# From MPC 76027
115P/Maury,e,11.6716,176.0473,121.0721,4.271738,0.1116342,0.51772147,190.7009,06/06.0/2016,2000,g 10.5,6.0
# From MPC 98565
116P/Wild,e,3.6086,20.9888,173.3095,3.483934,0.1515651,0.37223678,22.2024,06/06.0/2016,2000,g  2.5,10.0
# From MPC 95735
117P/Helin-Roman-Alu,e,8.6992,58.8747,222.5547,4.094362,0.1189665,0.25410065,95.4522,06/06.0/2016,2000,g  2.5,8.0
# From MPC 95735
118P/Shoemaker-Levy,e,8.5143,151.7266,302.3344,3.462218,0.1529933,0.42809579,358.3234,06/06.0/2016,2000,g 12.0,4.0
# From MPC 84628
119P/Parker-Hartley,e,5.2220,242.4790,182.3593,4.284234,0.1111461,0.29971457,88.2570,06/06.0/2016,2000,g  3.5,8.0
# From MPC 80901
120P/Mueller,e,8.8889,3.8760,29.0107,4.096407,0.1188774,0.34872022,142.4734,06/06.0/2016,2000,g 12.0,4.0
# From MPC 10028
121P/Shoemaker-Holt,e,20.1544,94.1494,11.5902,4.593946,0.1000980,0.18333384,101.0141,06/06.0/2016,2000,g  6.5,8.0
# From MPC 75718
122P/de Vico,e,85.1079,79.5712,13.0450,17.66468,0.0132753,0.96263345,100.1211,06/06.0/2016,2000,g  7.5,5.2
# From MPC 79345
123P/West-Hartley,e,15.3569,46.5108,102.9557,3.860314,0.1299481,0.44921980,233.4762,06/06.0/2016,2000,g  4.0,10.0
# From MPC 87068
124P/Mrkos,e,31.5328,0.4021,183.7772,3.318389,0.1630471,0.50400360,128.5134,06/06.0/2016,2000,g 13.5,2.8
# From MPC 94676
125P/Spacewatch,e,9.9881,153.1930,87.1459,3.125032,0.1784113,0.51301732,214.9188,06/06.0/2016,2000,g 13.0,6.0
# From MPC 66205
126P/IRAS,e,45.7816,357.8187,356.6281,5.641666,0.0735518,0.69515447,169.2870,06/06.0/2016,2000,g  6.0,8.0
# From MPC 84321
127P/Holt-Olmstead,e,14.3027,13.6496,6.6985,3.449950,0.1538101,0.36060157,12.3378,06/06.0/2016,2000,g 11.0,6.0
# From MPC 75719
128P-B/Shoemaker-Holt,e,4.3642,214.2922,210.5804,4.502941,0.1031478,0.32137249,337.4332,06/06.0/2016,2000,g  8.5,4.0
# From MPC 10028
129P/Shoemaker-Levy,e,3.4443,184.8986,308.9171,4.276456,0.1114495,0.08482755,94.8158,06/06.0/2016,2000,g 11.0,4.0
# From MPC 78188
130P/McNaught-Hughes,e,6.0472,70.5933,245.2544,3.393548,0.1576605,0.46207164,266.4406,06/06.0/2016,2000,g 10.0,6.0
# From MPC 76027
131P/Mueller,e,7.3545,214.1966,179.1395,3.678901,0.1396776,0.34277163,225.5252,06/06.0/2016,2000,g 11.0,4.0
# From MPC 92985
132P/Helin-Roman-Alu,e,5.9404,178.1438,220.8206,4.075340,0.1198004,0.54219500,88.6932,06/06.0/2016,2000,g 11.0,6.0
# From MPC 94676
133P/Elst-Pizarro,e,1.3876,160.1296,131.9136,3.161086,0.1753677,0.16025037,213.2156,06/06.0/2016,2000,g 15.4,2.0
# From MPC 89012
134P/Kowal-Vavrova,e,4.3493,202.0906,18.6524,6.241381,0.0632096,0.58798513,47.1705,06/06.0/2016,2000,g 11.5,4.0
# From MPC 92985
135P/Shoemaker-Levy,e,6.0620,213.0840,22.0111,3.804119,0.1328382,0.29557506,77.3324,06/06.0/2016,2000,g  7.0,8.0
# From MPC 84321
136P/Mueller,e,9.4157,137.4518,225.1678,4.203258,0.1143734,0.29123095,0.6637,06/06.0/2016,2000,g 11.0,4.0
# From MPC 75719
137P/Shoemaker-Levy,e,4.8505,233.0733,140.9668,4.518673,0.1026095,0.57210353,265.5116,06/06.0/2016,2000,g 11.0,4.0
# From MPC 65938
138P/Shoemaker-Levy,e,10.0846,309.3686,95.5932,3.622449,0.1429554,0.52955234,208.2794,06/06.0/2016,2000,g 15.0,6.0
# From MPC 89012
139P/Vaisala-Oterma,e,2.3324,242.2335,166.1419,4.529523,0.1022411,0.24639635,303.4161,06/06.0/2016,2000,g  9.5,4.0
# From MPC 92985
140P/Bowell-Skiff,e,3.8211,343.3916,172.9243,6.446817,0.0602124,0.69167591,18.2099,06/06.0/2016,2000,g 11.5,6.0
# From MPC 94284
141P/Machholz,e,12.8131,245.9350,149.5856,3.023725,0.1874523,0.74835272,53.5939,06/06.0/2016,2000,g 12.0,12.0
# From MPC 71683
142P/Ge-Wang,e,12.3617,176.4712,175.0890,4.948145,0.0895448,0.50027389,197.6753,06/06.0/2016,2000,g  8.5,6.0
# From MPC 94676
143P/Kowal-Mrkos,e,4.6947,245.3065,320.8443,4.294042,0.1107655,0.40997482,282.4203,06/06.0/2016,2000,g 13.5,2.0
# From MPC 84321
144P/Kushida,e,4.1149,245.4898,216.1492,3.857185,0.1301063,0.62889130,348.8148,06/06.0/2016,2000,g  8.5,8.0
# From MPC 75720
145P/Shoemaker-Levy,e,11.2599,26.8142,10.3993,4.144574,0.1168111,0.54070341,307.2046,06/06.0/2016,2000,g 13.5,4.0
# From MPC 10028
146P/Shoemaker-LINEAR,e,23.0725,53.4545,316.9785,4.040251,0.1213645,0.64603946,357.0715,06/06.0/2016,2000,g 15.0,4.0
# From MPC 75720
147P/Kushida-Muramatsu,e,2.3690,93.7308,347.0754,3.799858,0.1330617,0.27718409,13.1900,06/06.0/2016,2000,g 14.0,4.0
# From MPC 89730
148P/Anderson-LINEAR,e,3.6821,89.7476,6.6661,3.673769,0.1399704,0.53977149,50.1467,06/06.0/2016,2000,g 16.0,2.0
# From MPC 75720
149P/Mueller,e,29.7646,145.2604,43.6220,4.320817,0.1097375,0.38982150,251.8456,06/06.0/2016,2000,g  8.0,8.0
# From MPC 75720
150P/LONEOS,e,18.5066,272.4287,245.6784,3.883690,0.1287767,0.54690017,353.6974,06/06.0/2016,2000,g 13.5,4.0
# From MPC 95214
151P/Helin,e,4.7196,143.1539,216.2510,5.779381,0.0709385,0.57199109,17.1656,06/06.0/2016,2000,g 10.0,6.0
# From MPC 79346
152P/Helin-Lawrence,e,9.8712,91.8782,163.5286,4.490465,0.1035779,0.30784195,147.9254,06/06.0/2016,2000,g 11.5,4.0
# From MPC 46101
153P/Ikeya-Zhang,e,28.0460,93.3518,34.7251,51.23265,0.0026877,0.99012448,0.0000,03/22.6651/2002,2000,g  7.0,4.0
# From MPC 87068
154P/Brewington,e,17.8579,343.3705,47.9754,4.825024,0.0929940,0.67597936,84.2015,06/06.0/2016,2000,g  2.5,12.0
# From MPC 75720
155P/Shoemaker,e,6.3997,97.2538,14.7136,6.583735,0.0583439,0.72709530,286.6811,06/06.0/2016,2000,g 10.0,4.8
# From MPC 92985
156P/Russell-LINEAR,e,20.8890,38.6649,357.8868,3.589241,0.1449440,0.56124603,113.1422,06/06.0/2016,2000,g 15.5,2.0
# From MPC 95214
157P/Tritton,e,7.2850,299.9995,148.8908,3.408156,0.1566480,0.60151881,359.3180,06/06.0/2016,2000,g 10.0,4.0
# From MPC 10028
158P/Kowal-LINEAR,e,7.9042,137.2751,241.0995,4.741695,0.0954561,0.02972337,121.1694,06/06.0/2016,2000,g  9.0,4.0
# From MPC 75721
159P/LONEOS,e,23.4598,55.0381,4.8492,5.861213,0.0694581,0.38178491,310.2489,06/06.0/2016,2000,g 10.0,4.0
# From MPC 80901
160P/LINEAR,e,16.2950,334.8493,12.0420,3.741857,0.1361675,0.53674859,187.1194,06/06.0/2016,2000,g 15.5,2.0
# From MPC 75721
161P/Hartley-IRAS,e,95.5774,1.2301,46.9536,7.720936,0.0459409,0.83553226,184.0742,06/06.0/2016,2000,g  8.5,6.0
# From MPC 92985
162P/Siding Spring,e,27.7906,31.1928,356.4712,3.057823,0.1843256,0.59513781,60.8232,06/06.0/2016,2000,g 12.0,4.0
# From MPC 78188
163P/NEAT,e,12.7145,102.1108,349.8018,3.767218,0.1347947,0.45240208,204.2937,06/06.0/2016,2000,g 14.5,4.0
# From MPC 94676
164P/Christensen,e,16.2568,88.3132,325.9788,3.659151,0.1408100,0.53971838,257.9865,06/06.0/2016,2000,g 11.0,4.0
# From MPC 75721
165P/LINEAR,e,15.9043,0.5077,126.3869,17.90124,0.0130131,0.61788939,75.9172,06/06.0/2016,2000,g 11.5,2.0
# From MPC 75722
166P/NEAT,e,15.3603,64.4865,322.1345,13.89646,0.0190260,0.37962271,97.8267,06/06.0/2016,2000,g  5.5,4.0
# From MPC 75722
167P/CINEOS,e,19.1042,295.8327,343.4920,16.14914,0.0151873,0.27164990,84.1581,06/06.0/2016,2000,g  9.5,2.0
# From MPC 82322
